CONNECTA IOT-13         
1 67400U 26004AP  26030.92559349  .00008187  00000+0  40134-3 0  9994
2 67400  97.4539  32.0152 0011002 102.3664 257.8802 15.18334724  2939
CONNECTA IOT-14         
1 67401U 26004AQ  26030.92426128  .00005187  00000+0  25478-3 0  9994
2 67401  97.4482  32.0023 0011718  97.4093 262.8474 15.18437503  2938
CONNECTA IOT-15         
1 67402U 26004AR  26030.94429611 -.00000746  00000+0 -34618-4 0  9992
2 67402  97.4540  31.9917 0004930  83.6953 276.4842 15.16837727  2923
SHIJIAN-29B (SJ-29B)    
1 67403U 25315C   26030.96841282 -.00000075  00000+0  00000+0 0  9998
2 67403   3.0500  98.7108 0001587 307.0141 146.1924  1.00271432   311
STARLINK-36484          
1 67404U 26005A   26030.91667824 -.02081371  00000+0 -30281-1 0  9996
2 67404  43.0008  95.2543 0001588 275.9549 100.6727 15.58040909  4063
STARLINK-36452          
1 67405U 26005B   26030.91667824 -.02084846  00000+0 -30332-1 0  9994
2 67405  43.0008  95.2497 0001699 274.4431 104.0986 15.58044669  4061
STARLINK-36409          
1 67406U 26005C   26030.91667824 -.02081019  00000+0 -30277-1 0  9992
2 67406  43.0012  95.2454 0001503 274.5970 105.8654 15.58039761  4117
STARLINK-36510          
1 67407U 26005D   26030.91667824 -.02083837  00000+0 -30320-1 0  9992
2 67407  43.0009  95.2408 0001469 272.2284 110.1497 15.58042424  4111
STARLINK-36509          
1 67408U 26005E   26030.91667824 -.02067020  00000+0 -30063-1 0  9993
2 67408  43.0011  95.2347 0001729 271.5092 112.8024 15.58025070  4118
STARLINK-36507          
1 67409U 26005F   26030.91667824 -.02084579  00000+0 -30333-1 0  9992
2 67409  43.0008  95.2306 0001572 273.1839 113.0315 15.58040932  4113
STARLINK-36508          
1 67410U 26005G   26030.91667824 -.02086948  00000+0 -30370-1 0  9997
2 67410  43.0006  95.2261 0001410 272.1371 115.9923 15.58043659  4119
STARLINK-36503          
1 67411U 26005H   26030.91667824 -.02075375  00000+0 -30186-1 0  9995
2 67411  43.0011  95.2202 0001714 274.9072 115.1420 15.58037368  3850
