CCSDS_OMM_VERS = 2.0
CREATION_DATE  = 
ORIGINATOR     = 

OBJECT_NAME    = CONNECTA IOT-13
OBJECT_ID      = 2026-004AP
CENTER_NAME    = EARTH
REF_FRAME      = TEME
TIME_SYSTEM    = UTC
MEAN_ELEMENT_THEORY = SGP/SGP4

EPOCH          = 2026-01-30T22:12:51.277536
MEAN_MOTION    = 15.18334724
ECCENTRICITY   = .00110028
INCLINATION    = 97.4539
RA_OF_ASC_NODE = 32.0152
ARG_OF_PERICENTER = 102.3664
MEAN_ANOMALY   = 257.8802

EPHEMERIS_TYPE = 0
CLASSIFICATION_TYPE = U
NORAD_CAT_ID   = 67400
ELEMENT_SET_NO = 999
REV_AT_EPOCH   = 293
BSTAR          = .40134241E-3
MEAN_MOTION_DOT = .8187E-4
MEAN_MOTION_DDOT = 0

CCSDS_OMM_VERS = 2.0
CREATION_DATE  = 
ORIGINATOR     = 

OBJECT_NAME    = CONNECTA IOT-14
OBJECT_ID      = 2026-004AQ
CENTER_NAME    = EARTH
REF_FRAME      = TEME
TIME_SYSTEM    = UTC
MEAN_ELEMENT_THEORY = SGP/SGP4

EPOCH          = 2026-01-30T22:10:56.174592
MEAN_MOTION    = 15.18437503
ECCENTRICITY   = .00117181
INCLINATION    = 97.4482
RA_OF_ASC_NODE = 32.0023
ARG_OF_PERICENTER = 97.4093
MEAN_ANOMALY   = 262.8474

EPHEMERIS_TYPE = 0
CLASSIFICATION_TYPE = U
NORAD_CAT_ID   = 67401
ELEMENT_SET_NO = 999
REV_AT_EPOCH   = 293
BSTAR          = .2547804E-3
MEAN_MOTION_DOT = .5187E-4
MEAN_MOTION_DDOT = 0

CCSDS_OMM_VERS = 2.0
CREATION_DATE  = 
ORIGINATOR     = 

OBJECT_NAME    = CONNECTA IOT-15
OBJECT_ID      = 2026-004AR
CENTER_NAME    = EARTH
REF_FRAME      = TEME
TIME_SYSTEM    = UTC
MEAN_ELEMENT_THEORY = SGP/SGP4

EPOCH          = 2026-01-30T22:39:47.183904
MEAN_MOTION    = 15.16837727
ECCENTRICITY   = .00049309
INCLINATION    = 97.4540
RA_OF_ASC_NODE = 31.9917
ARG_OF_PERICENTER = 83.6953
MEAN_ANOMALY   = 276.4842

EPHEMERIS_TYPE = 0
CLASSIFICATION_TYPE = U
NORAD_CAT_ID   = 67402
ELEMENT_SET_NO = 999
REV_AT_EPOCH   = 292
BSTAR          = -.3461826E-4
MEAN_MOTION_DOT = -.746E-5
MEAN_MOTION_DDOT = 0

CCSDS_OMM_VERS = 2.0
CREATION_DATE  = 
ORIGINATOR     = 

OBJECT_NAME    = SHIJIAN-29B (SJ-29B)
OBJECT_ID      = 2025-315C
CENTER_NAME    = EARTH
REF_FRAME      = TEME
TIME_SYSTEM    = UTC
MEAN_ELEMENT_THEORY = SGP/SGP4

EPOCH          = 2026-01-30T23:14:30.867648
MEAN_MOTION    = 1.00271432
ECCENTRICITY   = .00015871
INCLINATION    = 3.0500
RA_OF_ASC_NODE = 98.7108
ARG_OF_PERICENTER = 307.0141
MEAN_ANOMALY   = 146.1924

EPHEMERIS_TYPE = 0
CLASSIFICATION_TYPE = U
NORAD_CAT_ID   = 67403
ELEMENT_SET_NO = 999
REV_AT_EPOCH   = 31
BSTAR          = 0
MEAN_MOTION_DOT = -.75E-6
MEAN_MOTION_DDOT = 0

CCSDS_OMM_VERS = 2.0
CREATION_DATE  = 
ORIGINATOR     = 

OBJECT_NAME    = STARLINK-36484
OBJECT_ID      = 2026-005A
CENTER_NAME    = EARTH
REF_FRAME      = TEME
TIME_SYSTEM    = UTC
MEAN_ELEMENT_THEORY = SGP/SGP4

EPOCH          = 2026-01-30T22:00:00.999936
MEAN_MOTION    = 15.58040909
ECCENTRICITY   = .00015884
INCLINATION    = 43.0008
RA_OF_ASC_NODE = 95.2543
ARG_OF_PERICENTER = 275.9549
MEAN_ANOMALY   = 100.6727

EPHEMERIS_TYPE = 0
CLASSIFICATION_TYPE = U
NORAD_CAT_ID   = 67404
ELEMENT_SET_NO = 999
REV_AT_EPOCH   = 406
BSTAR          = -.30280647E-1
MEAN_MOTION_DOT = -.2081371E-1
MEAN_MOTION_DDOT = 0

CCSDS_OMM_VERS = 2.0
CREATION_DATE  = 
ORIGINATOR     = 

OBJECT_NAME    = STARLINK-36452
OBJECT_ID      = 2026-005B
CENTER_NAME    = EARTH
REF_FRAME      = TEME
TIME_SYSTEM    = UTC
MEAN_ELEMENT_THEORY = SGP/SGP4

EPOCH          = 2026-01-30T22:00:00.999936
MEAN_MOTION    = 15.58044669
ECCENTRICITY   = .0001699
INCLINATION    = 43.0008
RA_OF_ASC_NODE = 95.2497
ARG_OF_PERICENTER = 274.4431
MEAN_ANOMALY   = 104.0986

EPHEMERIS_TYPE = 0
CLASSIFICATION_TYPE = U
NORAD_CAT_ID   = 67405
ELEMENT_SET_NO = 999
REV_AT_EPOCH   = 406
BSTAR          = -.30331764E-1
MEAN_MOTION_DOT = -.2084846E-1
MEAN_MOTION_DDOT = 0

CCSDS_OMM_VERS = 2.0
CREATION_DATE  = 
ORIGINATOR     = 

OBJECT_NAME    = STARLINK-36409
OBJECT_ID      = 2026-005C
CENTER_NAME    = EARTH
REF_FRAME      = TEME
TIME_SYSTEM    = UTC
MEAN_ELEMENT_THEORY = SGP/SGP4

EPOCH          = 2026-01-30T22:00:00.999936
MEAN_MOTION    = 15.58039761
ECCENTRICITY   = .00015037
INCLINATION    = 43.0012
RA_OF_ASC_NODE = 95.2454
ARG_OF_PERICENTER = 274.5970
MEAN_ANOMALY   = 105.8654

EPHEMERIS_TYPE = 0
CLASSIFICATION_TYPE = U
NORAD_CAT_ID   = 67406
ELEMENT_SET_NO = 999
REV_AT_EPOCH   = 411
BSTAR          = -.30277174E-1
MEAN_MOTION_DOT = -.2081019E-1
MEAN_MOTION_DDOT = 0

CCSDS_OMM_VERS = 2.0
CREATION_DATE  = 
ORIGINATOR     = 

OBJECT_NAME    = STARLINK-36510
OBJECT_ID      = 2026-005D
CENTER_NAME    = EARTH
REF_FRAME      = TEME
TIME_SYSTEM    = UTC
MEAN_ELEMENT_THEORY = SGP/SGP4

EPOCH          = 2026-01-30T22:00:00.999936
MEAN_MOTION    = 15.58042424
ECCENTRICITY   = .00014699
INCLINATION    = 43.0009
RA_OF_ASC_NODE = 95.2408
ARG_OF_PERICENTER = 272.2284
MEAN_ANOMALY   = 110.1497

EPHEMERIS_TYPE = 0
CLASSIFICATION_TYPE = U
NORAD_CAT_ID   = 67407
ELEMENT_SET_NO = 999
REV_AT_EPOCH   = 411
BSTAR          = -.30320449E-1
MEAN_MOTION_DOT = -.2083837E-1
MEAN_MOTION_DDOT = 0

CCSDS_OMM_VERS = 2.0
CREATION_DATE  = 
ORIGINATOR     = 

OBJECT_NAME    = STARLINK-36509
OBJECT_ID      = 2026-005E
CENTER_NAME    = EARTH
REF_FRAME      = TEME
TIME_SYSTEM    = UTC
MEAN_ELEMENT_THEORY = SGP/SGP4

EPOCH          = 2026-01-30T22:00:00.999936
MEAN_MOTION    = 15.58025070
ECCENTRICITY   = .00017291
INCLINATION    = 43.0011
RA_OF_ASC_NODE = 95.2347
ARG_OF_PERICENTER = 271.5092
MEAN_ANOMALY   = 112.8024

EPHEMERIS_TYPE = 0
CLASSIFICATION_TYPE = U
NORAD_CAT_ID   = 67408
ELEMENT_SET_NO = 999
REV_AT_EPOCH   = 411
BSTAR          = -.30063253E-1
MEAN_MOTION_DOT = -.206702E-1
MEAN_MOTION_DDOT = 0

CCSDS_OMM_VERS = 2.0
CREATION_DATE  = 
ORIGINATOR     = 

OBJECT_NAME    = STARLINK-36507
OBJECT_ID      = 2026-005F
CENTER_NAME    = EARTH
REF_FRAME      = TEME
TIME_SYSTEM    = UTC
MEAN_ELEMENT_THEORY = SGP/SGP4

EPOCH          = 2026-01-30T22:00:00.999936
MEAN_MOTION    = 15.58040932
ECCENTRICITY   = .00015726
INCLINATION    = 43.0008
RA_OF_ASC_NODE = 95.2306
ARG_OF_PERICENTER = 273.1839
MEAN_ANOMALY   = 113.0315

EPHEMERIS_TYPE = 0
CLASSIFICATION_TYPE = U
NORAD_CAT_ID   = 67409
ELEMENT_SET_NO = 999
REV_AT_EPOCH   = 411
BSTAR          = -.30333151E-1
MEAN_MOTION_DOT = -.2084579E-1
MEAN_MOTION_DDOT = 0

CCSDS_OMM_VERS = 2.0
CREATION_DATE  = 
ORIGINATOR     = 

OBJECT_NAME    = STARLINK-36508
OBJECT_ID      = 2026-005G
CENTER_NAME    = EARTH
REF_FRAME      = TEME
TIME_SYSTEM    = UTC
MEAN_ELEMENT_THEORY = SGP/SGP4

EPOCH          = 2026-01-30T22:00:00.999936
MEAN_MOTION    = 15.58043659
ECCENTRICITY   = .00014101
INCLINATION    = 43.0006
RA_OF_ASC_NODE = 95.2261
ARG_OF_PERICENTER = 272.1371
MEAN_ANOMALY   = 115.9923

EPHEMERIS_TYPE = 0
CLASSIFICATION_TYPE = U
NORAD_CAT_ID   = 67410
ELEMENT_SET_NO = 999
REV_AT_EPOCH   = 411
BSTAR          = -.30370463E-1
MEAN_MOTION_DOT = -.2086948E-1
MEAN_MOTION_DDOT = 0

CCSDS_OMM_VERS = 2.0
CREATION_DATE  = 
ORIGINATOR     = 

OBJECT_NAME    = STARLINK-36503
OBJECT_ID      = 2026-005H
CENTER_NAME    = EARTH
REF_FRAME      = TEME
TIME_SYSTEM    = UTC
MEAN_ELEMENT_THEORY = SGP/SGP4

EPOCH          = 2026-01-30T22:00:00.999936
MEAN_MOTION    = 15.58037368
ECCENTRICITY   = .00017146
INCLINATION    = 43.0011
RA_OF_ASC_NODE = 95.2202
ARG_OF_PERICENTER = 274.9072
MEAN_ANOMALY   = 115.1420

EPHEMERIS_TYPE = 0
CLASSIFICATION_TYPE = U
NORAD_CAT_ID   = 67411
ELEMENT_SET_NO = 999
REV_AT_EPOCH   = 385
BSTAR          = -.30185501E-1
MEAN_MOTION_DOT = -.2075375E-1
MEAN_MOTION_DDOT = 0

